{
  "type": "FeatureCollection",
  "features": [
    {
      "type": "Feature",
      "properties": {
        "id": 1,
        "zoneCode": "ZONE-A01",
        "name": "Central Demo Flight Area",
        "zoneType": "ALLOWED",
        "reason": "Approved demonstration boundary",
        "displayColor": "#22C55E"
      },
      "geometry": {
        "type": "Polygon",
        "coordinates": [
          [
            [
              106.682,
              10.762
            ],
            [
              106.72,
              10.762
            ],
            [
              106.72,
              10.792
            ],
            [
              106.682,
              10.792
            ],
            [
              106.682,
              10.762
            ]
          ]
        ]
      }
    },
    {
      "type": "Feature",
      "properties": {
        "id": 2,
        "zoneCode": "ZONE-R01",
        "name": "Hospital Safety Zone",
        "zoneType": "RESTRICTED",
        "reason": "Demonstration restricted zone around a hospital",
        "displayColor": "#EF4444"
      },
      "geometry": {
        "type": "Polygon",
        "coordinates": [
          [
            [
              106.694,
              10.771
            ],
            [
              106.698,
              10.771
            ],
            [
              106.698,
              10.775
            ],
            [
              106.694,
              10.775
            ],
            [
              106.694,
              10.771
            ]
          ]
        ]
      }
    },
    {
      "type": "Feature",
      "properties": {
        "id": 3,
        "zoneCode": "ZONE-R02",
        "name": "Government Facility Zone",
        "zoneType": "RESTRICTED",
        "reason": "Demonstration restricted government area",
        "displayColor": "#EF4444"
      },
      "geometry": {
        "type": "Polygon",
        "coordinates": [
          [
            [
              106.706,
              10.779
            ],
            [
              106.711,
              10.779
            ],
            [
              106.711,
              10.784
            ],
            [
              106.706,
              10.784
            ],
            [
              106.706,
              10.779
            ]
          ]
        ]
      }
    },
    {
      "type": "Feature",
      "properties": {
        "id": 4,
        "zoneCode": "ZONE-R03",
        "name": "School Safety Zone",
        "zoneType": "RESTRICTED",
        "reason": "Demonstration restriction during operating hours",
        "displayColor": "#F97316"
      },
      "geometry": {
        "type": "Polygon",
        "coordinates": [
          [
            [
              106.686,
              10.781
            ],
            [
              106.69,
              10.781
            ],
            [
              106.69,
              10.785
            ],
            [
              106.686,
              10.785
            ],
            [
              106.686,
              10.781
            ]
          ]
        ]
      }
    },
    {
      "type": "Feature",
      "properties": {
        "id": 5,
        "zoneCode": "ZONE-R04",
        "name": "Temporary Event Zone",
        "zoneType": "RESTRICTED",
        "reason": "Temporary demonstration restriction",
        "displayColor": "#F97316"
      },
      "geometry": {
        "type": "Polygon",
        "coordinates": [
          [
            [
              106.7,
              10.764
            ],
            [
              106.704,
              10.764
            ],
            [
              106.705,
              10.768
            ],
            [
              106.701,
              10.769
            ],
            [
              106.7,
              10.764
            ]
          ]
        ]
      }
    },
    {
      "type": "Feature",
      "properties": {
        "id": 6,
        "zoneCode": "ZONE-R05",
        "name": "Dense Residential Zone",
        "zoneType": "RESTRICTED",
        "reason": "Demonstration restriction over a dense residential area",
        "displayColor": "#EF4444"
      },
      "geometry": {
        "type": "Polygon",
        "coordinates": [
          [
            [
              106.713,
              10.769
            ],
            [
              106.718,
              10.769
            ],
            [
              106.718,
              10.774
            ],
            [
              106.713,
              10.774
            ],
            [
              106.713,
              10.769
            ]
          ]
        ]
      }
    },
    {
      "type": "Feature",
      "properties": {
        "id": 7,
        "zoneCode": "ZONE-R06",
        "name": "Emergency Landing Buffer",
        "zoneType": "RESTRICTED",
        "reason": "Reserved demonstration emergency buffer",
        "displayColor": "#F97316"
      },
      "geometry": {
        "type": "Polygon",
        "coordinates": [
          [
            [
              106.692,
              10.787
            ],
            [
              106.697,
              10.787
            ],
            [
              106.697,
              10.791
            ],
            [
              106.692,
              10.791
            ],
            [
              106.692,
              10.787
            ]
          ]
        ]
      }
    },
    {
      "type": "Feature",
      "properties": {
        "id": 8,
        "zoneCode": "ZONE-R07",
        "name": "Infrastructure Protection Zone",
        "zoneType": "RESTRICTED",
        "reason": "Demonstration restriction near critical infrastructure",
        "displayColor": "#EF4444"
      },
      "geometry": {
        "type": "Polygon",
        "coordinates": [
          [
            [
              106.703,
              10.772
            ],
            [
              106.707,
              10.772
            ],
            [
              106.707,
              10.776
            ],
            [
              106.703,
              10.776
            ],
            [
              106.703,
              10.772
            ]
          ]
        ]
      }
    }
  ]
}
